start=new Date('2022-05-18T00:00:00.000Z').valueOf();
sats=[{"OBJECT_ID":"2021-012Z","MEAN_ELEMENT_THEORY":"SGP4","MEAN_MOTION_DOT":"-0.00002491","ELEMENT_SET_NO":"999","BSTAR":"-0.00014841000000","MEAN_MOTION_DDOT":"0.0000000000000","LAUNCH_DATE":"2021-02-16","PERIOD":"95.593","RCS_SIZE":"LARGE","NORAD_CAT_ID":"47643","ECCENTRICITY":"0.00020720","COUNTRY_CODE":"US","INCLINATION":"53.0545","TIME_SYSTEM":"UTC","MEAN_MOTION":"15.06385966","MEAN_ANOMALY":"314.6657","PERIAPSIS":"545.822","SEMIMAJOR_AXIS":"6925.392","RA_OF_ASC_NODE":"181.5753","FILE":"3450306","GP_ID":"203789166","CLASSIFICATION_TYPE":"U","OBJECT_NAME":"STARLINK-2022","CENTER_NAME":"EARTH","APOAPSIS":"548.692","TLE_LINE1":"1 47643U 21012Z   22137.46256619 -.00002491  00000-0 -14841-3 0  9993","DECAY_DATE":null,"EPOCH":"2022-05-17T11:06:05.718816","TLE_LINE2":"2 47643  53.0545 181.5753 0002072  45.4501 314.6657 15.06385966 69903","REV_AT_EPOCH":"6990","OBJECT_TYPE":"PAYLOAD","SITE":"AFETR","ARG_OF_PERICENTER":"45.4501","REF_FRAME":"TEME","EPHEMERIS_TYPE":"0"},{"FILE":"3450137","GP_ID":"203782025","OBJECT_NAME":"STARLINK-2026","CLASSIFICATION_TYPE":"U","CENTER_NAME":"EARTH","APOAPSIS":"548.332","MEAN_MOTION":"15.06397429","PERIAPSIS":"546.111","MEAN_ANOMALY":"294.4726","SEMIMAJOR_AXIS":"6925.356","RA_OF_ASC_NODE":"201.2188","OBJECT_TYPE":"PAYLOAD","TLE_LINE2":"2 47644  53.0541 201.2188 0001604  65.6430 294.4726 15.06397429 70166","REV_AT_EPOCH":"7016","REF_FRAME":"TEME","EPHEMERIS_TYPE":"0","SITE":"AFETR","ARG_OF_PERICENTER":"65.6430","TLE_LINE1":"1 47644U 21012AA  22137.54180234  .00001162  00000-0  96882-4 0  9990","DECAY_DATE":null,"EPOCH":"2022-05-17T13:00:11.722176","ECCENTRICITY":"0.00016040","COUNTRY_CODE":"US","LAUNCH_DATE":"2021-02-16","RCS_SIZE":"LARGE","PERIOD":"95.592","NORAD_CAT_ID":"47644","OBJECT_ID":"2021-012AA","MEAN_ELEMENT_THEORY":"SGP4","ELEMENT_SET_NO":"999","BSTAR":"0.00009688200000","MEAN_MOTION_DDOT":"0.0000000000000","MEAN_MOTION_DOT":"0.00001162","INCLINATION":"53.0541","TIME_SYSTEM":"UTC"},{"TIME_SYSTEM":"UTC","INCLINATION":"53.0546","OBJECT_ID":"2021-012AB","MEAN_ELEMENT_THEORY":"SGP4","MEAN_MOTION_DDOT":"0.0000000000000","BSTAR":"-0.00006726300000","ELEMENT_SET_NO":"999","MEAN_MOTION_DOT":"-0.00001283","COUNTRY_CODE":"US","ECCENTRICITY":"0.00016480","RCS_SIZE":"LARGE","NORAD_CAT_ID":"47645","PERIOD":"95.593","LAUNCH_DATE":"2021-02-16","TLE_LINE1":"1 47645U 21012AB  22137.53994455 -.00001283  00000-0 -67263-4 0  9995","EPOCH":"2022-05-17T12:57:31.209120","DECAY_DATE":null,"OBJECT_TYPE":"PAYLOAD","REV_AT_EPOCH":"7055","TLE_LINE2":"2 47645  53.0546 171.2169 0001648  64.7675 295.3485 15.06393267 70557","EPHEMERIS_TYPE":"0","REF_FRAME":"TEME","ARG_OF_PERICENTER":"64.7675","SITE":"AFETR","PERIAPSIS":"546.093","MEAN_ANOMALY":"295.3485","MEAN_MOTION":"15.06393267","SEMIMAJOR_AXIS":"6925.369","RA_OF_ASC_NODE":"171.2169","GP_ID":"203783265","OBJECT_NAME":"STARLINK-2027","CLASSIFICATION_TYPE":"U","FILE":"3450137","APOAPSIS":"548.375","CENTER_NAME":"EARTH"},{"INCLINATION":"53.0549","TIME_SYSTEM":"UTC","RCS_SIZE":"LARGE","PERIOD":"95.592","NORAD_CAT_ID":"47646","LAUNCH_DATE":"2021-02-16","COUNTRY_CODE":"US","ECCENTRICITY":"0.00026800","MEAN_MOTION_DOT":"0.00000739","BSTAR":"0.00006856600000","MEAN_MOTION_DDOT":"0.0000000000000","ELEMENT_SET_NO":"999","MEAN_ELEMENT_THEORY":"SGP4","OBJECT_ID":"2021-012AC","ARG_OF_PERICENTER":"45.4621","SITE":"AFETR","EPHEMERIS_TYPE":"0","REF_FRAME":"TEME","REV_AT_EPOCH":"7100","TLE_LINE2":"2 47646  53.0549 137.4860 0002680  45.4621 314.6586 15.06396497 71003","OBJECT_TYPE":"PAYLOAD","EPOCH":"2022-05-17T06:16:06.573216","DECAY_DATE":null,"TLE_LINE1":"1 47646U 21012AC  22137.26118719  .00000739  00000-0  68566-4 0  9997","APOAPSIS":"549.080","CENTER_NAME":"EARTH","CLASSIFICATION_TYPE":"U","GP_ID":"203783027","OBJECT_NAME":"STARLINK-2028","FILE":"3450137","RA_OF_ASC_NODE":"137.4860","SEMIMAJOR_AXIS":"6925.359","PERIAPSIS":"545.368","MEAN_ANOMALY":"314.6586","MEAN_MOTION":"15.06396497"},{"ELEMENT_SET_NO":"999","BSTAR":"-0.00000670160000","MEAN_MOTION_DDOT":"0.0000000000000","MEAN_MOTION_DOT":"-0.00000381","OBJECT_ID":"2021-012AD","MEAN_ELEMENT_THEORY":"SGP4","ECCENTRICITY":"0.00016790","COUNTRY_CODE":"US","LAUNCH_DATE":"2021-02-16","RCS_SIZE":"LARGE","NORAD_CAT_ID":"47647","PERIOD":"95.593","INCLINATION":"53.0544","TIME_SYSTEM":"UTC","SEMIMAJOR_AXIS":"6925.412","RA_OF_ASC_NODE":"201.1759","MEAN_MOTION":"15.06379363","MEAN_ANOMALY":"299.0209","PERIAPSIS":"546.114","APOAPSIS":"548.440","CENTER_NAME":"EARTH","FILE":"3450137","CLASSIFICATION_TYPE":"U","GP_ID":"203781777","OBJECT_NAME":"STARLINK-2030","DECAY_DATE":null,"EPOCH":"2022-05-17T13:16:08.025024","TLE_LINE1":"1 47647U 21012AD  22137.55287066 -.00000381  00000-0 -67016-5 0  9997","REF_FRAME":"TEME","EPHEMERIS_TYPE":"0","SITE":"AFETR","ARG_OF_PERICENTER":"61.0948","OBJECT_TYPE":"PAYLOAD","TLE_LINE2":"2 47647  53.0544 201.1759 0001679  61.0948 299.0209 15.06379363 70165","REV_AT_EPOCH":"7016"},{"EPOCH":"2022-05-17T13:02:50.768160","DECAY_DATE":null,"TLE_LINE1":"1 47648U 21012AE  22137.54364315  .00000739  00000-0  68505-4 0  9998","EPHEMERIS_TYPE":"0","REF_FRAME":"TEME","ARG_OF_PERICENTER":"46.9907","SITE":"AFETR","OBJECT_TYPE":"PAYLOAD","REV_AT_EPOCH":"6992","TLE_LINE2":"2 47648  53.0537 181.2144 0001875  46.9907 313.1239 15.06395980 69925","SEMIMAJOR_AXIS":"6925.361","RA_OF_ASC_NODE":"181.2144","MEAN_ANOMALY":"313.1239","PERIAPSIS":"545.927","MEAN_MOTION":"15.06395980","APOAPSIS":"548.524","CENTER_NAME":"EARTH","GP_ID":"203789663","OBJECT_NAME":"STARLINK-2031","CLASSIFICATION_TYPE":"U","FILE":"3450306","INCLINATION":"53.0537","TIME_SYSTEM":"UTC","MEAN_MOTION_DDOT":"0.0000000000000","BSTAR":"0.00006850500000","ELEMENT_SET_NO":"999","MEAN_MOTION_DOT":"0.00000739","OBJECT_ID":"2021-012AE","MEAN_ELEMENT_THEORY":"SGP4","COUNTRY_CODE":"US","ECCENTRICITY":"0.00018750","RCS_SIZE":"MEDIUM","NORAD_CAT_ID":"47648","PERIOD":"95.592","LAUNCH_DATE":"2021-02-16"},{"OBJECT_TYPE":"PAYLOAD","TLE_LINE2":"2 47649  53.0547 181.4937 0001853  41.1902 318.9226 15.06386575 70434","REV_AT_EPOCH":"7043","REF_FRAME":"TEME","EPHEMERIS_TYPE":"0","SITE":"AFETR","ARG_OF_PERICENTER":"41.1902","TLE_LINE1":"1 47649U 21012AF  22137.48099116 -.00001483  00000-0 -80681-4 0  9994","DECAY_DATE":null,"EPOCH":"2022-05-17T11:32:37.636224","FILE":"3450137","GP_ID":"203782777","OBJECT_NAME":"STARLINK-2032","CLASSIFICATION_TYPE":"U","CENTER_NAME":"EARTH","APOAPSIS":"548.538","MEAN_MOTION":"15.06386575","PERIAPSIS":"545.971","MEAN_ANOMALY":"318.9226","RA_OF_ASC_NODE":"181.4937","SEMIMAJOR_AXIS":"6925.390","TIME_SYSTEM":"UTC","INCLINATION":"53.0547","ECCENTRICITY":"0.00018530","COUNTRY_CODE":"US","LAUNCH_DATE":"2021-02-16","NORAD_CAT_ID":"47649","RCS_SIZE":"LARGE","PERIOD":"95.593","MEAN_ELEMENT_THEORY":"SGP4","OBJECT_ID":"2021-012AF","ELEMENT_SET_NO":"999","BSTAR":"-0.00008068100000","MEAN_MOTION_DDOT":"0.0000000000000","MEAN_MOTION_DOT":"-0.00001483"},{"EPOCH":"2022-05-17T12:46:55.174656","DECAY_DATE":null,"TLE_LINE1":"1 47650U 21012AG  22137.53258304 -.00000679  00000-0 -26684-4 0  9997","EPHEMERIS_TYPE":"0","REF_FRAME":"TEME","SITE":"AFETR","ARG_OF_PERICENTER":"45.6499","OBJECT_TYPE":"PAYLOAD","REV_AT_EPOCH":"7042","TLE_LINE2":"2 47650  53.0546 181.2614 0001809  45.6499 314.4638 15.06398322 70426","SEMIMAJOR_AXIS":"6925.354","RA_OF_ASC_NODE":"181.2614","MEAN_ANOMALY":"314.4638","PERIAPSIS":"545.966","MEAN_MOTION":"15.06398322","APOAPSIS":"548.471","CENTER_NAME":"EARTH","OBJECT_NAME":"STARLINK-2033","GP_ID":"203783516","CLASSIFICATION_TYPE":"U","FILE":"3450137","INCLINATION":"53.0546","TIME_SYSTEM":"UTC","MEAN_MOTION_DDOT":"0.0000000000000","BSTAR":"-0.00002668400000","ELEMENT_SET_NO":"999","MEAN_MOTION_DOT":"-0.00000679","MEAN_ELEMENT_THEORY":"SGP4","OBJECT_ID":"2021-012AG","COUNTRY_CODE":"US","ECCENTRICITY":"0.00018090","NORAD_CAT_ID":"47650","RCS_SIZE":"LARGE","PERIOD":"95.592","LAUNCH_DATE":"2021-02-16"},{"COUNTRY_CODE":"US","ECCENTRICITY":"0.00017080","RCS_SIZE":"LARGE","NORAD_CAT_ID":"47651","PERIOD":"95.593","LAUNCH_DATE":"2021-02-16","MEAN_ELEMENT_THEORY":"SGP4","OBJECT_ID":"2021-012AH","BSTAR":"0.00012958000000","MEAN_MOTION_DDOT":"0.0000000000000","ELEMENT_SET_NO":"999","MEAN_MOTION_DOT":"0.00001649","INCLINATION":"53.0542","TIME_SYSTEM":"UTC","GP_ID":"203782267","OBJECT_NAME":"STARLINK-2035","CLASSIFICATION_TYPE":"U","FILE":"3450137","CENTER_NAME":"EARTH","APOAPSIS":"548.424","MEAN_ANOMALY":"302.4027","PERIAPSIS":"546.058","MEAN_MOTION":"15.06390965","RA_OF_ASC_NODE":"201.7095","SEMIMAJOR_AXIS":"6925.376","OBJECT_TYPE":"PAYLOAD","REV_AT_EPOCH":"7014","TLE_LINE2":"2 47651  53.0542 201.7095 0001708  57.7127 302.4027 15.06390965 70147","EPHEMERIS_TYPE":"0","REF_FRAME":"TEME","SITE":"AFETR","ARG_OF_PERICENTER":"57.7127","TLE_LINE1":"1 47651U 21012AH  22137.43396768  .00001649  00000-0  12958-3 0  9998","EPOCH":"2022-05-17T10:24:54.807552","DECAY_DATE":null},{"LAUNCH_DATE":"2021-02-16","PERIOD":"95.594","RCS_SIZE":"LARGE","NORAD_CAT_ID":"47652","ECCENTRICITY":"0.00018890","COUNTRY_CODE":"US","MEAN_MOTION_DOT":"0.00003421","ELEMENT_SET_NO":"999","MEAN_MOTION_DDOT":"0.0000000000000","BSTAR":"0.00024862000000","OBJECT_ID":"2021-012AJ","MEAN_ELEMENT_THEORY":"SGP4","TIME_SYSTEM":"UTC","INCLINATION":"53.0534","CENTER_NAME":"EARTH","APOAPSIS":"548.609","FILE":"3450266","GP_ID":"203787685","OBJECT_NAME":"STARLINK-2036","CLASSIFICATION_TYPE":"U","SEMIMAJOR_AXIS":"6925.436","RA_OF_ASC_NODE":"201.5841","MEAN_MOTION":"15.06371594","PERIAPSIS":"545.992","MEAN_ANOMALY":"311.8683","ARG_OF_PERICENTER":"48.2467","SITE":"AFETR","REF_FRAME":"TEME","EPHEMERIS_TYPE":"0","TLE_LINE2":"2 47652  53.0534 201.5841 0001889  48.2467 311.8683 15.06371594 69628","REV_AT_EPOCH":"6962","OBJECT_TYPE":"PAYLOAD","DECAY_DATE":null,"EPOCH":"2022-05-17T11:03:26.431776","TLE_LINE1":"1 47652U 21012AJ  22137.46072259  .00003421  00000-0  24862-3 0  9995"}];
